[{"OBJECT_NAME":"ORBITER SN3","OBJECT_ID":"2023-084AE","EPOCH":"2026-03-09T23:12:21.976128","MEAN_MOTION":15.32943891,"ECCENTRICITY":0.00075889,"INCLINATION":97.61,"RA_OF_ASC_NODE":206.6768,"ARG_OF_PERICENTER":331.7947,"MEAN_ANOMALY":28.2883,"EPHEMERIS_TYPE":0,"CLASSIFICATION_TYPE":"U","NORAD_CAT_ID":56960,"ELEMENT_SET_NO":999,"REV_AT_EPOCH":15228,"BSTAR":0.00032835432,"MEAN_MOTION_DOT":0.00010378,"MEAN_MOTION_DDOT":0},{"OBJECT_NAME":"STARLINK-32737","OBJECT_ID":"2024-251N","EPOCH":"2026-03-09T23:16:15.393504","MEAN_MOTION":15.30192317,"ECCENTRICITY":0.00013207,"INCLINATION":53.1596,"RA_OF_ASC_NODE":331.704,"ARG_OF_PERICENTER":131.4882,"MEAN_ANOMALY":228.6233,"EPHEMERIS_TYPE":0,"CLASSIFICATION_TYPE":"U","NORAD_CAT_ID":62444,"ELEMENT_SET_NO":999,"REV_AT_EPOCH":6802,"BSTAR":0.00063914212,"MEAN_MOTION_DOT":0.00018613,"MEAN_MOTION_DDOT":0}]
